{
  "type": "FeatureCollection",
  "features": [
    {
      "type": "Feature",
      "properties": {
        "norad_id": 29985,
        "name": "FENGYUN 1C DEB",
        "group": "fengyun-1c-debris",
        "lat": 4.383802575316464,
        "lon": -177.93131150941318,
        "alt_km": 843.855687753342,
        "timestamp": "2025-12-12T07:43:20.786294+00:00",
        "meta_object_name": "FENGYUN 1C DEB",
        "meta_object_id": "1999-025LK",
        "meta_epoch": "2025-12-12T00:20:20.546016",
        "meta_mean_motion": 14.10323619,
        "meta_eccentricity": 0.00280971,
        "meta_inclination": 98.7107,
        "meta_ra_of_asc_node": 1.0973,
        "meta_arg_of_pericenter": 211.1073,
        "meta_mean_anomaly": 203.4495,
        "meta_ephemeris_type": 0,
        "meta_classification_type": "U",
        "meta_norad_cat_id": 29985,
        "meta_element_set_no": 999,
        "meta_rev_at_epoch": 97338,
        "meta_bstar": 4.7236116e-05,
        "meta_mean_motion_dot": 4.1e-07,
        "meta_mean_motion_ddot": 0,
        "tle_line1": "1 29985U 99025LK  25346.01412669  .00000041  00000+0  47236-4 0  9997",
        "tle_line2": "2 29985  98.7107   1.0973 0028097 211.1073 203.4495 14.10323619973385"
      },
      "geometry": {
        "type": "Point",
        "coordinates": [
          -177.93131150941318,
          4.383802575316464
        ]
      }
    },
    {
      "type": "Feature",
      "properties": {
        "norad_id": 29986,
        "name": "FENGYUN 1C DEB",
        "group": "fengyun-1c-debris",
        "lat": 57.66362516382079,
        "lon": -110.87908331681193,
        "alt_km": 797.3578927853741,
        "timestamp": "2025-12-12T07:43:20.786305+00:00",
        "meta_object_name": "FENGYUN 1C DEB",
        "meta_object_id": "1999-025LL",
        "meta_epoch": "2025-12-11T16:44:37.288320",
        "meta_mean_motion": 14.29205337,
        "meta_eccentricity": 0.00227736,
        "meta_inclination": 99.3976,
        "meta_ra_of_asc_node": 53.2833,
        "meta_arg_of_pericenter": 0.9374,
        "meta_mean_anomaly": 150.489,
        "meta_ephemeris_type": 0,
        "meta_classification_type": "U",
        "meta_norad_cat_id": 29986,
        "meta_element_set_no": 999,
        "meta_rev_at_epoch": 97492,
        "meta_bstar": 0.0023875387,
        "meta_mean_motion_dot": 6.035e-05,
        "meta_mean_motion_ddot": 0,
        "tle_line1": "1 29986U 99025LL  25345.69765380  .00006035  00000+0  23875-2 0  9992",
        "tle_line2": "2 29986  99.3976  53.2833 0022773   0.9374 150.4890 14.29205337974921"
      },
      "geometry": {
        "type": "Point",
        "coordinates": [
          -110.87908331681193,
          57.66362516382079
        ]
      }
    },
    {
      "type": "Feature",
      "properties": {
        "norad_id": 29987,
        "name": "FENGYUN 1C DEB",
        "group": "fengyun-1c-debris",
        "lat": 78.30247570014436,
        "lon": 107.47023592307023,
        "alt_km": 878.5746620217669,
        "timestamp": "2025-12-12T07:43:20.786316+00:00",
        "meta_object_name": "FENGYUN 1C DEB",
        "meta_object_id": "1999-025LM",
        "meta_epoch": "2025-12-11T06:21:40.068576",
        "meta_mean_motion": 14.14524391,
        "meta_eccentricity": 0.00796441,
        "meta_inclination": 98.8972,
        "meta_ra_of_asc_node": 237.2544,
        "meta_arg_of_pericenter": 237.8879,
        "meta_mean_anomaly": 242.1744,
        "meta_ephemeris_type": 0,
        "meta_classification_type": "U",
        "meta_norad_cat_id": 29987,
        "meta_element_set_no": 999,
        "meta_rev_at_epoch": 96352,
        "meta_bstar": 0.0044259612,
        "meta_mean_motion_dot": 8.718e-05,
        "meta_mean_motion_ddot": 0,
        "tle_line1": "1 29987U 99025LM  25345.26504709  .00008718  00000+0  44260-2 0  9993",
        "tle_line2": "2 29987  98.8972 237.2544 0079644 237.8879 242.1744 14.14524391963524"
      },
      "geometry": {
        "type": "Point",
        "coordinates": [
          107.47023592307023,
          78.30247570014436
        ]
      }
    },
    {
      "type": "Feature",
      "properties": {
        "norad_id": 29988,
        "name": "FENGYUN 1C DEB",
        "group": "fengyun-1c-debris",
        "lat": 66.05733771969741,
        "lon": 70.05087497293975,
        "alt_km": 660.122591207537,
        "timestamp": "2025-12-12T07:43:20.786326+00:00",
        "meta_object_name": "FENGYUN 1C DEB",
        "meta_object_id": "1999-025LN",
        "meta_epoch": "2025-12-11T22:02:38.464800",
        "meta_mean_motion": 14.50369023,
        "meta_eccentricity": 0.01206198,
        "meta_inclination": 98.6954,
        "meta_ra_of_asc_node": 89.7956,
        "meta_arg_of_pericenter": 20.803,
        "meta_mean_anomaly": 101.4459,
        "meta_ephemeris_type": 0,
        "meta_classification_type": "U",
        "meta_norad_cat_id": 29988,
        "meta_element_set_no": 999,
        "meta_rev_at_epoch": 98055,
        "meta_bstar": 0.0024782315,
        "meta_mean_motion_dot": 0.00010584,
        "meta_mean_motion_ddot": 0,
        "tle_line1": "1 29988U 99025LN  25345.91850075  .00010584  00000+0  24782-2 0  9997",
        "tle_line2": "2 29988  98.6954  89.7956 0120619  20.8030 101.4459 14.50369023980559"
      },
      "geometry": {
        "type": "Point",
        "coordinates": [
          70.05087497293975,
          66.05733771969741
        ]
      }
    },
    {
      "type": "Feature",
      "properties": {
        "norad_id": 29989,
        "name": "FENGYUN 1C DEB",
        "group": "fengyun-1c-debris",
        "lat": 35.374959423409024,
        "lon": -41.0946555496907,
        "alt_km": 921.013275921765,
        "timestamp": "2025-12-12T07:43:20.786337+00:00",
        "meta_object_name": "FENGYUN 1C DEB",
        "meta_object_id": "1999-025LP",
        "meta_epoch": "2025-12-11T21:40:06.068064",
        "meta_mean_motion": 14.1581834,
        "meta_eccentricity": 0.01231853,
        "meta_inclination": 98.6677,
        "meta_ra_of_asc_node": 324.7154,
        "meta_arg_of_pericenter": 198.0598,
        "meta_mean_anomaly": 224.3269,
        "meta_ephemeris_type": 0,
        "meta_classification_type": "U",
        "meta_norad_cat_id": 29989,
        "meta_element_set_no": 999,
        "meta_rev_at_epoch": 97599,
        "meta_bstar": 0.000219533,
        "meta_mean_motion_dot": 4.22e-06,
        "meta_mean_motion_ddot": 0,
        "tle_line1": "1 29989U 99025LP  25345.90284801  .00000422  00000+0  21953-3 0  9993",
        "tle_line2": "2 29989  98.6677 324.7154 0123185 198.0598 224.3269 14.15818340975990"
      },
      "geometry": {
        "type": "Point",
        "coordinates": [
          -41.0946555496907,
          35.374959423409024
        ]
      }
    },
    {
      "type": "Feature",
      "properties": {
        "norad_id": 29992,
        "name": "FENGYUN 1C DEB",
        "group": "fengyun-1c-debris",
        "lat": -80.72121911076448,
        "lon": 91.33245556606316,
        "alt_km": 869.6067832239996,
        "timestamp": "2025-12-12T07:43:20.786348+00:00",
        "meta_object_name": "FENGYUN 1C DEB",
        "meta_object_id": "1999-025LS",
        "meta_epoch": "2025-12-11T23:58:40.714176",
        "meta_mean_motion": 14.11611092,
        "meta_eccentricity": 0.00888308,
        "meta_inclination": 98.73,
        "meta_ra_of_asc_node": 341.1535,
        "meta_arg_of_pericenter": 169.7379,
        "meta_mean_anomaly": 257.1957,
        "meta_ephemeris_type": 0,
        "meta_classification_type": "U",
        "meta_norad_cat_id": 29992,
        "meta_element_set_no": 999,
        "meta_rev_at_epoch": 97377,
        "meta_bstar": 0.00015580404,
        "meta_mean_motion_dot": 2.51e-06,
        "meta_mean_motion_ddot": 0,
        "tle_line1": "1 29992U 99025LS  25345.99908234  .00000251  00000+0  15580-3 0  9998",
        "tle_line2": "2 29992  98.7300 341.1535 0088830 169.7379 257.1957 14.11611092973776"
      },
      "geometry": {
        "type": "Point",
        "coordinates": [
          91.33245556606316,
          -80.72121911076448
        ]
      }
    },
    {
      "type": "Feature",
      "properties": {
        "norad_id": 29993,
        "name": "FENGYUN 1C DEB",
        "group": "fengyun-1c-debris",
        "lat": -52.081834912581876,
        "lon": -168.39526041341827,
        "alt_km": 869.1481526331645,
        "timestamp": "2025-12-12T07:43:20.786358+00:00",
        "meta_object_name": "FENGYUN 1C DEB",
        "meta_object_id": "1999-025LT",
        "meta_epoch": "2025-12-11T23:47:42.132768",
        "meta_mean_motion": 14.08147791,
        "meta_eccentricity": 0.0038504,
        "meta_inclination": 98.7934,
        "meta_ra_of_asc_node": 22.7441,
        "meta_arg_of_pericenter": 316.8751,
        "meta_mean_anomaly": 42.9404,
        "meta_ephemeris_type": 0,
        "meta_classification_type": "U",
        "meta_norad_cat_id": 29993,
        "meta_element_set_no": 999,
        "meta_rev_at_epoch": 97159,
        "meta_bstar": 7.6945264e-05,
        "meta_mean_motion_dot": 8.9e-07,
        "meta_mean_motion_ddot": 0,
        "tle_line1": "1 29993U 99025LT  25345.99145987  .00000089  00000+0  76945-4 0  9999",
        "tle_line2": "2 29993  98.7934  22.7441 0038504 316.8751  42.9404 14.08147791971591"
      },
      "geometry": {
        "type": "Point",
        "coordinates": [
          -168.39526041341827,
          -52.081834912581876
        ]
      }
    }
  ]
}